NORAD_CAT_ID,OBJECT_NAME,OBJECT_TYPE,EPOCH,MEAN_MOTION,ECCENTRICITY,INCLINATION,RA_OF_ASC_NODE,ARG_OF_PERICENTER,MEAN_ANOMALY,BSTAR,MEAN_MOTION_DOT,MEAN_MOTION_DDOT,TLE_LINE0,TLE_LINE1,TLE_LINE2,SEMIMAJOR_AXIS,PERIOD,APOGEE,PERIGEE,DECAYED
53138.0,STARLINK-4141,PAYLOAD,2024-01-02 09:41:56,15.08839631,0.0001474,53.2181,148.4552,118.3219,241.7922,-2.0906e-06,-3.21e-06,0.0,0 STARLINK-4141,1 53138U 22083G   24002.40412314 -.00000321  00000-0 -20906-5 0  9992,2 53138  53.2181 148.4552 0001474 118.3219 241.7922 15.08839631 81541,6917.882,95.438,540.766,538.727,0.0
53138.0,STARLINK-4141,PAYLOAD,2024-01-02 14:28:05,15.08840038,0.0001341,53.2168,147.5647,99.9618,260.1526,2.4729e-05,1.06e-06,0.0,0 STARLINK-4141,1 53138U 22083G   24002.60284227  .00000106  00000-0  24729-4 0  9999,2 53138  53.2168 147.5647 0001341  99.9618 260.1526 15.08840038 81729,6917.88,95.438,540.673,538.818,0.0
53138.0,STARLINK-4141,PAYLOAD,2024-01-02 16:03:28,15.08831481,0.0001283,53.2162,147.2677,79.0288,281.0848,0.00013283,1.826e-05,0.0,0 STARLINK-4141,1 53138U 22083G   24002.66908513  .00001826  00000-0  13283-3 0  9998,2 53138  53.2162 147.2677 0001283  79.0288 281.0848 15.08831481 81732,6917.906,95.438,540.659,538.884,0.0
53138.0,STARLINK-4141,PAYLOAD,2024-01-03 14:18:52,15.08837653,0.0001515,53.2175,143.1052,106.6745,253.4414,-2.0791e-05,-6.19e-06,0.0,0 STARLINK-4141,1 53138U 22083G   24003.59644617 -.00000619  00000-0 -20791-4 0  9997,2 53138  53.2175 143.1052 0001515 106.6745 253.4414 15.08837653 81875,6917.888,95.438,540.801,538.705,0.0
53138.0,STARLINK-4141,PAYLOAD,2024-01-03 15:54:16,15.08838057,0.0001482,53.2175,142.8079,104.2059,255.9098,-2.0093e-05,-6.08e-06,0.0,0 STARLINK-4141,1 53138U 22083G   24003.66268605 -.00000608  00000-0 -20093-4 0  9997,2 53138  53.2175 142.8079 0001482 104.2059 255.9098 15.08838057 81734,6917.886,95.438,540.777,538.726,0.0
53138.0,STARLINK-4141,PAYLOAD,2024-01-04 14:09:39,15.08838438,0.0001337,53.2174,138.6463,86.8654,273.2491,3.5221e-05,2.73e-06,0.0,0 STARLINK-4141,1 53138U 22083G   24004.59004590  .00000273  00000-0  35221-4 0  9996,2 53138  53.2174 138.6463 0001337  86.8654 273.2491 15.08838438 82024,6917.885,95.438,540.675,538.825,0.0
53138.0,STARLINK-4141,PAYLOAD,2024-01-04 15:45:02,15.08840197,0.0001405,53.2172,138.3489,89.7868,270.3285,5.468e-05,5.82e-06,0.0,0 STARLINK-4141,1 53138U 22083G   24004.65628399  .00000582  00000-0  54680-4 0  9995,2 53138  53.2172 138.3489 0001405  89.7868 270.3285 15.08840197 82037,6917.88,95.438,540.717,538.773,0.0
53138.0,STARLINK-4141,PAYLOAD,2024-01-05 12:25:04,15.08833264,0.000137,53.2168,134.4833,105.9886,254.1257,-5.7231e-06,-3.79e-06,0.0,0 STARLINK-4141,1 53138U 22083G   24005.51741262 -.00000379  00000-0 -57231-5 0  9998,2 53138  53.2168 134.4833 0001370 105.9886 254.1257 15.08833264 82018,6917.901,95.438,540.714,538.818,0.0
53138.0,STARLINK-4141,PAYLOAD,2024-01-05 14:00:27,15.08833389,0.0001403,53.2168,134.1862,103.6506,256.4643,-3.946e-06,-3.51e-06,0.0,0 STARLINK-4141,1 53138U 22083G   24005.58365290 -.00000351  00000-0 -39460-5 0  9992,2 53138  53.2168 134.1862 0001403 103.6506 256.4643 15.08833389 82177,6917.901,95.438,540.736,538.795,0.0
53138.0,STARLINK-4141,PAYLOAD,2024-01-05 15:35:50,15.08833748,0.0001366,53.2167,133.8894,101.8293,258.2852,-7.6587e-06,-4.1e-06,0.0,0 STARLINK-4141,1 53138U 22083G   24005.64989307 -.00000410  00000-0 -76587-5 0  9997,2 53138  53.2167 133.8894 0001366 101.8293 258.2852 15.08833748 82180,6917.899,95.438,540.709,538.82,0.0
53138.0,STARLINK-4141,PAYLOAD,2024-01-06 12:15:51,15.08813171,0.000158,53.2169,130.022,109.4457,250.6706,0.00026779,3.973e-05,0.0,0 STARLINK-4141,1 53138U 22083G   24006.51101754  .00003973  00000-0  26779-3 0  9997,2 53138  53.2169 130.0220 0001580 109.4457 250.6706 15.08813171 82315,6917.962,95.439,540.92,538.734,0.0
53138.0,STARLINK-4141,PAYLOAD,2024-01-06 15:26:38,15.08778937,0.000173,53.2169,129.4285,99.2862,260.8326,0.00079318,0.00012337,0.0,0 STARLINK-4141,1 53138U 22083G   24006.64350207  .00012337  00000-0  79318-3 0  9991,2 53138  53.2169 129.4285 0001730  99.2862 260.8326 15.08778937 82187,6918.067,95.441,541.129,538.735,0.0
53138.0,STARLINK-4141,PAYLOAD,2024-01-07 12:06:38,15.088363,0.0001527,53.2173,125.5627,86.506,273.6107,8.691e-05,1.095e-05,0.0,0 STARLINK-4141,1 53138U 22083G   24007.50461488  .00001095  00000-0  86910-4 0  9997,2 53138  53.2173 125.5627 0001527  86.5060 273.6107 15.08836300 82315,6917.892,95.438,540.813,538.7,0.0
53138.0,STARLINK-4141,PAYLOAD,2024-01-07 13:42:01,15.08837586,0.0001547,53.2174,125.2656,85.7913,274.3256,9.9026e-05,1.288e-05,0.0,0 STARLINK-4141,1 53138U 22083G   24007.57085416  .00001288  00000-0  99026-4 0  9993,2 53138  53.2174 125.2656 0001547  85.7913 274.3256 15.08837586 82472,6917.888,95.438,540.823,538.683,0.0
53138.0,STARLINK-4141,PAYLOAD,2024-01-07 16:52:47,15.08840541,0.0001591,53.2175,124.6703,76.5724,283.5446,0.00015584,2.193e-05,0.0,0 STARLINK-4141,1 53138U 22083G   24007.70333121  .00002193  00000-0  15584-3 0  9999,2 53138  53.2175 124.6703 0001591  76.5724 283.5446 15.08840541 82496,6917.879,95.438,540.844,538.643,0.0
53138.0,STARLINK-4141,PAYLOAD,2024-01-08 13:32:49,15.08839539,0.0001453,53.2173,120.8044,79.8367,280.2789,1.5627e-05,-3.9e-07,0.0,0 STARLINK-4141,1 53138U 22083G   24008.56445700 -.00000039  00000-0  15627-4 0  9998,2 53138  53.2173 120.8044 0001453  79.8367 280.2789 15.08839539 82620,6917.882,95.438,540.752,538.742,0.0
53138.0,STARLINK-4141,PAYLOAD,2024-01-09 13:23:35,15.08849733,0.0001512,53.2178,116.3448,77.3564,282.7597,-7.0873e-06,-4.01e-06,0.0,0 STARLINK-4141,1 53138U 22083G   24009.55805122 -.00000401  00000-0 -70873-5 0  9995,2 53138  53.2178 116.3448 0001512  77.3564 282.7597 15.08849733 82778,6917.851,95.437,540.762,538.67,0.0
53138.0,STARLINK-4141,PAYLOAD,2024-01-09 16:34:21,15.08852819,0.0001463,53.2182,115.7452,94.6442,265.4718,2.9307e-05,1.79e-06,0.0,0 STARLINK-4141,1 53138U 22083G   24009.69052598  .00000179  00000-0  29307-4 0  9996,2 53138  53.2182 115.7452 0001463  94.6442 265.4718 15.08852819 82641,6917.841,95.437,540.718,538.694,0.0
53138.0,STARLINK-4141,PAYLOAD,2024-01-10 11:38:59,15.08844059,0.0001475,53.218,112.1744,95.5357,264.5804,-5.9242e-06,-3.82e-06,0.0,0 STARLINK-4141,1 53138U 22083G   24010.48541128 -.00000382  00000-0 -59242-5 0  9997,2 53138  53.2180 112.1744 0001475  95.5357 264.5804 15.08844059 82768,6917.868,95.437,540.753,538.713,0.0
53138.0,STARLINK-4141,PAYLOAD,2024-01-11 11:29:46,15.08849568,0.0001276,53.2164,107.717,97.1446,262.9692,-9.6776e-06,-4.42e-06,0.0,0 STARLINK-4141,1 53138U 22083G   24011.47900578 -.00000442  00000-0 -96776-5 0  9995,2 53138  53.2164 107.7170 0001276  97.1446 262.9692 15.08849568 83060,6917.851,95.437,540.599,538.833,0.0
53138.0,STARLINK-4141,PAYLOAD,2024-01-12 11:20:34,15.08836138,0.0001304,53.216,103.2614,77.0645,283.0493,-7.8498e-05,-1.537e-05,0.0,0 STARLINK-4141,1 53138U 22083G   24012.47262037 -.00001537  00000-0 -78498-4 0  9993,2 53138  53.2160 103.2614 0001304  77.0645 283.0493 15.08836138 83062,6917.892,95.438,540.659,538.855,0.0
53138.0,STARLINK-4141,PAYLOAD,2024-01-12 12:55:57,15.08838377,0.000145,53.2175,102.9588,90.2648,269.851,-3.2675e-05,-8.08e-06,0.0,0 STARLINK-4141,1 53138U 22083G   24012.53885643 -.00000808  00000-0 -32675-4 0  9991,2 53138  53.2175 102.9588 0001450  90.2648 269.8510 15.08838377 83223,6917.885,95.438,540.753,538.747,0.0
53138.0,STARLINK-4141,PAYLOAD,2024-01-13 11:11:21,15.08838666,0.0001342,53.2161,98.7993,86.6705,273.444,5.7517e-06,-1.96e-06,0.0,0 STARLINK-4141,1 53138U 22083G   24013.46621757 -.00000196  00000-0  57517-5 0  9990,2 53138  53.2161  98.7993 0001342  86.6705 273.4440 15.08838666 83362,6917.884,95.438,540.678,538.821,0.0
53138.0,STARLINK-4141,PAYLOAD,2024-01-14 14:12:54,15.08844572,0.0001431,53.2171,93.7426,107.1234,252.9915,0.00013508,1.863e-05,0.0,0 STARLINK-4141,1 53138U 22083G   24014.59229441  .00001863  00000-0  13508-3 0  9990,2 53138  53.2171  93.7426 0001431 107.1234 252.9915 15.08844572 83535,6917.866,95.437,540.721,538.741,0.0
53138.0,STARLINK-4141,PAYLOAD,2024-01-15 12:28:17,15.08850146,0.0001368,53.2169,89.5785,85.2487,274.8662,0.00012163,1.649e-05,0.0,0 STARLINK-4141,1 53138U 22083G   24015.51965101  .00001649  00000-0  12163-3 0  9991,2 53138  53.2169  89.5785 0001368  85.2487 274.8662 15.08850146 83679,6917.849,95.437,540.661,538.768,0.0
53138.0,STARLINK-4141,PAYLOAD,2024-01-16 04:22:10,15.0884088,0.0001696,53.2187,86.6093,127.8995,232.2151,-0.00010405,-1.944e-05,0.0,0 STARLINK-4141,1 53138U 22083G   24016.18206518 -.00001944  00000-0 -10405-3 0  9992,2 53138  53.2187  86.6093 0001696 127.8995 232.2151 15.08840880 83620,6917.878,95.437,540.916,538.569,0.0
53138.0,STARLINK-4141,PAYLOAD,2024-01-16 12:19:06,15.08841499,0.0001535,53.2176,85.1208,93.5454,266.5714,-3.1057e-05,-7.82e-06,0.0,0 STARLINK-4141,1 53138U 22083G   24016.51326400 -.00000782  00000-0 -31057-4 0  9998,2 53138  53.2176  85.1208 0001535  93.5454 266.5714 15.08841499 83825,6917.876,95.437,540.803,538.679,0.0
53138.0,STARLINK-4141,PAYLOAD,2024-01-17 10:34:30,15.08828161,0.0001656,53.2173,80.9564,111.1912,248.9257,-3.0742e-05,-7.77e-06,0.0,0 STARLINK-4141,1 53138U 22083G   24017.44063463 -.00000777  00000-0 -30742-4 0  9992,2 53138  53.2173  80.9564 0001656 111.1912 248.9257 15.08828161 83816,6917.917,95.438,540.927,538.636,0.0
53138.0,STARLINK-4141,PAYLOAD,2024-01-18 10:25:16,15.08850827,0.0001577,53.2182,76.4947,85.613,274.5042,0.00014331,1.994e-05,0.0,0 STARLINK-4141,1 53138U 22083G   24018.43421658  .00001994  00000-0  14331-3 0  9991,2 53138  53.2182  76.4947 0001577  85.6130 274.5042 15.08850827 83967,6917.847,95.437,540.803,538.621,0.0
53138.0,STARLINK-4141,PAYLOAD,2024-01-19 10:16:03,15.08845006,0.000157,53.2183,72.0361,123.5459,236.5683,2.1896e-05,6.1e-07,0.0,0 STARLINK-4141,1 53138U 22083G   24019.42782178  .00000061  00000-0  21896-4 0  9997,2 53138  53.2183  72.0361 0001570 123.5459 236.5683 15.08845006 84119,6917.865,95.437,540.816,538.644,0.0
